#Pass ID: 20250126_195715_FENGYUN 3F
#Satellite: FENGYUN 3F
#Configuration: FENGYUN 3F
#Start time: 2025-01-26 19:57:20.530968

#LorettStation: 1.0.0 05.05.2024
#Station: Regia
#Location: 37.494653 lon 55.929028 lat
#TLE: 1 57490U 23111A   25025.90728866  .00000222  00000+0  12515-3 0  9995
#TLE: 2 57490  98.7446  98.7181 0001534 128.7167 231.4147 14.19982364 76871

#Time	Az	El	Level	SNR
#Closed at: 2025-01-26 19:57:15.531552